TDRS 3                  
1 19548U 88091B   22243.33366983 -.00000294  00000+0  00000+0 0  9991
2 19548  13.6612 350.7226 0033447 327.0920  92.7838  1.00265494111491
HST                     
1 20580U 90037B   22243.74878847  .00001417  00000+0  72392-4 0  9999
2 20580  28.4707  29.7907 0002740 123.4159   5.4010 15.10803559577610
TDRS 5                  
1 21639U 91054B   22244.21921764  .00000089  00000+0  00000+0 0  9991
2 21639  14.2322   4.0433 0022959   2.6927 244.9849  1.00277598113817
TDRS 6                  
1 22314U 93003B   22243.79498421 -.00000291  00000+0  00000+0 0  9995
2 22314  14.1358   7.2991 0011623 132.7152  80.2497  1.00268324108519
TDRS 7                  
1 23613U 95035B   22243.82958340 -.00000196  00000+0  00000+0 0  9994
2 23613  13.9491 357.9938 0026734  58.4383 306.9692  1.00270058 99366
ISS (ZARYA)             
1 25544U 98067A   22244.54256946  .00006176  00000+0  11609-3 0  9994
2 25544  51.6442 318.3112 0003041 184.5763 307.6157 15.50002873357022
LANDSAT 7               
1 25682U 99020A   22244.17250106  .00000124  00000+0  35126-4 0  9996
2 25682  97.9735 289.3644 0001150  98.3861 261.7480 14.59791093243615
TERRA                   
1 25994U 99068A   22244.50282510  .00000208  00000+0  56074-4 0  9993
2 25994  98.1318 314.6601 0001446  83.2848  44.3774 14.57144264207691
TDRS 8                  
1 26388U 00034A   22244.43392219 -.00000226  00000+0  00000+0 0  9990
2 26388  10.4848  42.0166 0018086 351.1146 192.5896  1.00264111 81282
TIMED                   
1 26998U 01055B   22244.11141300  .00000395  00000+0  46199-4 0  9999
2 26998  74.0722 128.9096 0001674 298.5970  61.5042 14.88766796124402
TDRS 9                  
1 27389U 02011A   22243.40118984 -.00000283  00000+0  00000+0 0  9993
2 27389   9.1755  60.1229 0021423 298.5171  62.8324  1.00264354 76556
AQUA                    
1 27424U 02022A   22244.50437701  .00000387  00000+0  95535-4 0  9994
2 27424  98.2503 185.6889 0001642  58.1038  32.7767 14.57366949 81309
TDRS 10                 
1 27566U 02055A   22243.73638062  .00000093  00000+0  00000+0 0  9996
2 27566   8.3372  49.5328 0005502 351.2333  33.1652  1.00276605 72347
SORCE                   
1 27651U 03004A   22244.00470239  .00000653  00000+0  80089-4 0  9999
2 27651  39.9951 155.5870 0024258 283.2451  76.5632 14.90062560 64367
AURA                    
1 28376U 04026A   22243.82665145  .00000283  00000+0  72763-4 0  9999
2 28376  98.2122 186.0906 0001570  76.9918 283.1456 14.57125141964206
SWIFT                   
1 28485U 04047A   22243.92028083  .00002356  00000+0  12379-3 0  9997
2 28485  20.5559 140.4553 0010555 175.1908 184.8628 15.06773441974942
THEMIS A                
1 30580U 07004A   22244.18450680 -.00000572  00000+0 -33275-1 0  9999
2 30580  13.6925 337.7521 8379108 180.9674 174.0747  0.87836735 53794
THEMIS D                
1 30797U 07004D   22244.32239292 -.00000472  00000+0  00000+0 0  9995
2 30797   9.4912 326.9152 8336626 194.9004 229.1683  0.87838770 53324
THEMIS E                
1 30798U 07004E   22244.11970681 -.00000487  00000+0  00000+0 0  9993
2 30798  10.4356 340.7041 8326262 183.1606 154.9325  0.87842184 53730
AIM                     
1 31304U 07015A   22244.52184403  .00006841  00000+0  33407-3 0  9993
2 31304  97.8516 166.6039 0006610 107.3621 252.8335 15.18596985842732
FGRST (GLAST)           
1 33053U 08029A   22244.51480961  .00001386  00000+0  60979-4 0  9993
2 33053  25.5837   8.4499 0011870 343.6867  16.3286 15.12358498785444
WISE                    
1 36119U 09071A   22244.06117887  .00003904  00000+0  11958-3 0  9991
2 36119  97.2347 276.9966 0003575  64.2626 295.8986 15.34383527707119
TDRS 11                 
1 39070U 13004A   22244.55464392  .00000082  00000+0  00000+0 0  9997
2 39070   2.8664 348.2260 0006143  83.6206 294.1783  1.00267535 35103
TDRS 12                 
1 39504U 14004A   22243.80517628 -.00000265  00000+0  00000+0 0  9992
2 39504   3.7985 348.6048 0004020 151.3885  88.9873  1.00272086 30388
GPM-CORE                
1 39574U 14009C   22243.89905406  .00010433  00000+0  15091-3 0  9995
2 39574  65.0005 291.4896 0010645 286.5427  73.4550 15.56318218483341
MMS 1                   
1 40482U 15011A   22241.39929949 -.00001826  00000+0  00000+0 0  9997
2 40482  31.1799  99.7807 8757388  58.5839 358.8732  0.28406496 13519
MMS 2                   
1 40483U 15011B   22241.90894782 -.00001788  00000+0  00000+0 0  9998
2 40483  31.1678  99.7426 8760152  58.6308  50.9666  0.28404453 13571
MMS 3                   
1 40484U 15011C   22241.91311449 -.00001787  00000+0  00000+0 0  9993
2 40484  31.1435  99.6867 8758335  58.6673  51.4011  0.28401126 13255
MMS 4                   
1 40485U 15011D   22241.92700338 -.00001787  00000+0  00000+0 0  9994
2 40485  31.1488  99.7521 8759144  58.6191  52.7853  0.28400819 13465
TDRS 13                 
1 42915U 17047A   22244.12685722 -.00000096  00000+0  00000+0 0  9991
2 42915   4.3743 334.1552 0018016 123.9959 276.3332  1.00272131 18496
JPSS-1                  
1 43013U 17073A   22244.48738665  .00000034  00000+0  36798-4 0  9993
2 43013  98.7184 181.8612 0001019 113.1102 247.0181 14.19540569248019
